STARLINK-5166           
1 54085U 22136AL  26068.88906061 -.00003891  00000+0 -22637-3 0  9991
2 54085  53.2185 333.2592 0001207  90.1268 269.9862 15.08860719187015
LEMUR-2-STELLA          
1 60533U 24149BT  26068.72657350  .00013685  00000+0  85776-3 0  9992
2 60533  97.6764 150.9122 0001299  95.1117 265.0260 15.09464064 85488
